IRIDIUM 155             
1 43573U 18061E   25090.84845347  .00000205  00000+0  65997-4 0  9993
2 43573  86.3949 241.4702 0001882  88.0652 272.0759 14.34218210349959
IRIDIUM 154             
1 43574U 18061F   25090.89919660  .00000073  00000+0  18947-4 0  9995
2 43574  86.3955 241.5606 0002119  95.3598 264.7839 14.34217489350018
IRIDIUM 163             
1 43575U 18061G   25090.88016834  .00000609  00000+0  21027-3 0  9993
2 43575  86.3949 241.4978 0002137  90.7359 269.4081 14.34216815349984
IRIDIUM 156             
1 43576U 18061H   25090.85479746  .00000303  00000+0  10097-3 0  9992
2 43576  86.3950 241.5153 0001698  90.1979 269.9412 14.34217208349975
IRIDIUM 164             
1 43577U 18061J   25090.83577110  .00000158  00000+0  49496-4 0  9999
2 43577  86.3952 241.5564 0002041 101.9114 258.2311 14.34215721350013
IRIDIUM 159             
1 43578U 18061K   25090.87382188  .00000516  00000+0  17724-3 0  9999
2 43578  86.3953 241.4864 0002195  96.5941 263.5505 14.34217050349989
IRIDIUM 180             
1 43922U 19002A   25090.73378763  .00000434  00000+0  14792-3 0  9998
2 43922  86.4045 178.5120 0002216  93.5630 266.5819 14.34216667325579
IRIDIUM 176             
1 43923U 19002B   25090.82516529  .00001980  00000+0  31014-3 0  9996
2 43923  86.6165 178.4736 0002698  82.6199 277.5325 14.72248297334165
IRIDIUM 168             
1 43924U 19002C   25090.79721243  .00000052  00000+0  11522-4 0  9996
2 43924  86.4046 178.5502 0002214  97.3894 262.7554 14.34216716325566
IRIDIUM 173             
1 43925U 19002D   25090.85429236  .00000409  00000+0  13905-3 0  9993
2 43925  86.4042 178.4336 0002177  91.1736 268.9709 14.34214770325559
IRIDIUM 169             
1 43926U 19002E   25090.80799145  .00000649  00000+0  20572-3 0  9992
2 43926  86.4277 210.0168 0001918  53.2962 306.8412 14.38620009326620
IRIDIUM 172             
1 43927U 19002F   25090.84795338  .00000490  00000+0  16802-3 0  9992
2 43927  86.4042 178.4428 0002510  95.7211 264.4271 14.34218395325565
IRIDIUM 175             
1 43928U 19002G   25090.81997668  .00001751  00000+0  27366-3 0  9998
2 43928  86.1501 135.4200 0001250  85.1058 275.0302 14.72249901334153
IRIDIUM 171             
1 43929U 19002H   25090.75915523  .00000396  00000+0  13444-3 0  9998
2 43929  86.4052 178.7367 0001983 106.2921 253.8493 14.34219247325545
IRIDIUM 170             
1 43930U 19002J   25090.76337045  .00001956  00000+0  30630-3 0  9997
2 43930  86.6165 178.5045 0001905  95.4088 264.7347 14.72256784334168
IRIDIUM 167             
1 43931U 19002K   25090.75281285  .00000359  00000+0  12107-3 0  9996
2 43931  86.4042 178.5010 0001688 100.1824 259.9562 14.34217549325544
IRIDIUM 181             
1 56726U 23068S   25090.85429193  .00000858  00000+0  24914-3 0  9995
2 56726  86.4490 241.5168 0001892 109.4984 250.6421 14.43294283 98637
IRIDIUM 177             
1 56727U 23068T   25090.73485554  .00002806  00000+0  36561-3 0  9992
2 56727  86.2033 178.8666 0001895 111.1413 249.0011 14.80250386100913
IRIDIUM 174             
1 56728U 23068U   25090.79706601  .00002757  00000+0  35936-3 0  9998
2 56728  86.2037 178.9630 0002769  99.5820 260.5713 14.80228949100920
IRIDIUM 178             
1 56729U 23068V   25090.85916702  .00002985  00000+0  38919-3 0  9998
2 56729  86.6599 210.0766 0002185 105.9475 254.1988 14.80249325100931
IRIDIUM 179             
1 56730U 23068W   25090.78627938  .00003049  00000+0  39803-3 0  9997
2 56730  86.6824 217.7475 0002142  82.1870 277.9595 14.80215032100927
